ONEWEB-0205             
1 48226U 21031S   24179.74856612 -.00000017  00000+0 -79028-4 0  9990
2 48226  87.8962  72.8297 0001689  75.6487 284.4830 13.14505478153758
ONEWEB-0206             
1 48227U 21031T   24179.94996034 -.00000360  00000+0 -10069-2 0  9995
2 48227  87.8960  72.7786 0001605  79.0499 281.0811 13.14503143153735
ONEWEB-0182             
1 48228U 21031U   24179.94520263  .00000019  00000+0  16983-4 0  9995
2 48228  87.8966  72.8073 0001806  82.9685 277.1650 13.14504844153944
ONEWEB-0186             
1 48229U 21031V   24179.72795472 -.00000159  00000+0 -46461-3 0  9998
2 48229  87.8963  72.8141 0001877  75.8595 284.2743 13.14501120153864
ONEWEB-0181             
1 48230U 21031W   24179.70575914  .00000143  00000+0  35015-3 0  9999
2 48230  87.8963  72.8884 0001871  72.9031 287.2304 13.14501426153716
ONEWEB-0188             
1 48231U 21031X   24179.74381681 -.00000135  00000+0 -39814-3 0  9994
2 48231  87.8962  72.8765 0001803  77.8834 282.2498 13.14502057153624
ONEWEB-0220             
1 48232U 21031Y   24179.70732752  .00001853  00000+0  49609-2 0  9998
2 48232  87.8960  72.8482 0001486  74.9975 285.1319 13.14519242153886
ONEWEB-0165             
1 48233U 21031Z   24179.73587970 -.00000225  00000+0 -64115-3 0  9996
2 48233  87.8962  72.8585 0001744  70.8360 289.2958 13.14504712153849
